ONEWEB-0401             
1 50481U 21132N   24044.83435774 -.00000141  00000+0 -39011-3 0  9996
2 50481  87.9238 145.4914 0002097 108.7462 251.3897 13.18685902109010
ONEWEB-0402             
1 50482U 21132P   24044.79957561  .00000036  00000+0  59464-4 0  9991
2 50482  87.9238 145.4954 0002298  97.3109 262.8284 13.18684398109036
ONEWEB-0403             
1 50483U 21132Q   24044.82329014 -.00000097  00000+0 -27888-3 0  9995
2 50483  87.9241 145.4958 0001976 116.6521 243.4814 13.18685596108999
ONEWEB-0404             
1 50484U 21132R   24045.41790141 -.00000479  00000+0 -13876-2 0  9990
2 50484  87.9006 190.7722 0001518 124.4400 235.6872 13.11415791105069
ONEWEB-0405             
1 50485U 21132S   24044.83909834 -.00000098  00000+0 -28079-3 0  9996
2 50485  87.9240 145.4822 0002252 110.2273 249.9102 13.18684848109397
ONEWEB-0406             
1 50486U 21132T   24045.20742283  .00000143  00000+0  33018-3 0  9990
2 50486  87.9246 145.4181 0001525 119.6785 240.4499 13.18686920110362
ONEWEB-0407             
1 50487U 21132U   24044.82171002  .00000103  00000+0  22961-3 0  9994
2 50487  87.9238 145.5018 0001979 111.7323 248.4020 13.18685259108963
ONEWEB-0409             
1 50488U 21132V   24045.41628442 -.00000539  00000+0 -15574-2 0  9992
2 50488  87.8995 190.7798 0001156 121.0956 239.0286 13.11418827104967
